{"type": "FeatureCollection", "features": [ {"type": "Feature", "properties": {"norad_id": 39574, "name": "GPM-CORE", "group": "resource", "lat": -41.84863320267512, "lon": 65.9003839996946, "alt_km": 430.33308556211523, "timestamp": "2025-12-10T04:57:29.262611+00:00", "meta": {"OBJECT_NAME": "GPM-CORE", "OBJECT_ID": "2014-009C", "EPOCH": "2025-12-09T18:39:31.330080", "MEAN_MOTION": 15.45457187, "ECCENTRICITY": 0.0010516, "INCLINATION": 64.9737, "RA_OF_ASC_NODE": 222.6027, "ARG_OF_PERICENTER": 270.0694, "MEAN_ANOMALY": 89.9242, "EPHEMERIS_TYPE": 0, "CLASSIFICATION_TYPE": "U", "NORAD_CAT_ID": 39574, "ELEMENT_SET_NO": 999, "REV_AT_EPOCH": 66855, "BSTAR": 0.00041792, "MEAN_MOTION_DOT": 0.0001997, "MEAN_MOTION_DDOT": 0}, "tle": {"line1": "1 39574U 14009C   25343.77744595  .00019970  00000+0  41792-3 0  9998", "line2": "2 39574  64.9737 222.6027 0010516 270.0694  89.9242 15.45457187668559"}}, "geometry": {"type": "Point", "coordinates": [65.9003839996946, -41.84863320267512]}}, {"type": "Feature", "properties": {"norad_id": 39634, "name": "SENTINEL-1A", "group": "resource", "lat": 34.58308082106897, "lon": 175.17627264547235, "alt_km": 693.0549363068085, "timestamp": "2025-12-10T04:57:29.262621+00:00", "meta": {"OBJECT_NAME": "SENTINEL-1A", "OBJECT_ID": "2014-016A", "EPOCH": "2025-12-09T20:04:03.935424", "MEAN_MOTION": 14.59200064, "ECCENTRICITY": 0.0001268, "INCLINATION": 98.1802, "RA_OF_ASC_NODE": 349.12, "ARG_OF_PERICENTER": 85.4405, "MEAN_ANOMALY": 274.6939, "EPHEMERIS_TYPE": 0, "CLASSIFICATION_TYPE": "U", "NORAD_CAT_ID": 39634, "ELEMENT_SET_NO": 999, "REV_AT_EPOCH": 62240, "BSTAR": 2.3371e-05, "MEAN_MOTION_DOT": 6.4e-07, "MEAN_MOTION_DDOT": 0}, "tle": {"line1": "1 39634U 14016A   25343.83615666  .00000064  00000+0  23371-4 0  9994", "line2": "2 39634  98.1802 349.1200 0001268  85.4405 274.6939 14.59200064622402"}}, "geometry": {"type": "Point", "coordinates": [175.17627264547235, 34.58308082106897]}}, {"type": "Feature", "properties": {"norad_id": 39731, "name": "KAZEOSAT 1", "group": "resource", "lat": -80.04260150458433, "lon": 112.88045098522268, "alt_km": 759.8063609590281, "timestamp": "2025-12-10T04:57:29.262631+00:00", "meta": {"OBJECT_NAME": "KAZEOSAT 1", "OBJECT_ID": "2014-024A", "EPOCH": "2025-12-09T19:21:29.783808", "MEAN_MOTION": 14.42059739, "ECCENTRICITY": 0.0001081, "INCLINATION": 98.3433, "RA_OF_ASC_NODE": 55.7795, "ARG_OF_PERICENTER": 93.0017, "MEAN_ANOMALY": 267.1297, "EPHEMERIS_TYPE": 0, "CLASSIFICATION_TYPE": "U", "NORAD_CAT_ID": 39731, "ELEMENT_SET_NO": 999, "REV_AT_EPOCH": 61126, "BSTAR": 0.00011233, "MEAN_MOTION_DOT": 3.26e-06, "MEAN_MOTION_DDOT": 0}, "tle": {"line1": "1 39731U 14024A   25343.80659472  .00000326  00000+0  11233-3 0  9995", "line2": "2 39731  98.3433  55.7795 0001081  93.0017 267.1297 14.42059739611267"}}, "geometry": {"type": "Point", "coordinates": [112.88045098522268, -80.04260150458433]}}, {"type": "Feature", "properties": {"norad_id": 39766, "name": "ALOS-2", "group": "resource", "lat": 0.8173953488878164, "lon": -100.79745221490809, "alt_km": 633.7978498224711, "timestamp": "2025-12-10T04:57:29.262641+00:00", "meta": {"OBJECT_NAME": "ALOS-2", "OBJECT_ID": "2014-029A", "EPOCH": "2025-12-09T20:02:07.876896", "MEAN_MOTION": 14.79463674, "ECCENTRICITY": 0.0001506, "INCLINATION": 97.9226, "RA_OF_ASC_NODE": 78.7223, "ARG_OF_PERICENTER": 96.9697, "MEAN_ANOMALY": 263.1686, "EPHEMERIS_TYPE": 0, "CLASSIFICATION_TYPE": "U", "NORAD_CAT_ID": 39766, "ELEMENT_SET_NO": 999, "REV_AT_EPOCH": 62358, "BSTAR": 0.00050358, "MEAN_MOTION_DOT": 3.711e-05, "MEAN_MOTION_DDOT": 0}, "tle": {"line1": "1 39766U 14029A   25343.83481339  .00003711  00000+0  50358-3 0  9998", "line2": "2 39766  97.9226  78.7223 0001506  96.9697 263.1686 14.79463674623582"}}, "geometry": {"type": "Point", "coordinates": [-100.79745221490809, 0.8173953488878164]}}, {"type": "Feature", "properties": {"norad_id": 40010, "name": "KAZEOSAT 2", "group": "resource", "lat": 36.88580843582738, "lon": -177.06083262661883, "alt_km": 615.7492577698158, "timestamp": "2025-12-10T04:57:29.262652+00:00", "meta": {"OBJECT_NAME": "KAZEOSAT 2", "OBJECT_ID": "2014-033A", "EPOCH": "2025-12-09T20:42:20.639232", "MEAN_MOTION": 14.85160969, "ECCENTRICITY": 0.0007519, "INCLINATION": 97.5501, "RA_OF_ASC_NODE": 188.3254, "ARG_OF_PERICENTER": 217.1164, "MEAN_ANOMALY": 142.9533, "EPHEMERIS_TYPE": 0, "CLASSIFICATION_TYPE": "U", "NORAD_CAT_ID": 40010, "ELEMENT_SET_NO": 999, "REV_AT_EPOCH": 62085, "BSTAR": 0.00018582, "MEAN_MOTION_DOT": 1.541e-05, "MEAN_MOTION_DDOT": 0}, "tle": {"line1": "1 40010U 14033A   25343.86273888  .00001541  00000+0  18582-3 0  9990", "line2": "2 40010  97.5501 188.3254 0007519 217.1164 142.9533 14.85160969620856"}}, "geometry": {"type": "Point", "coordinates": [-177.06083262661883, 36.88580843582738]}}, {"type": "Feature", "properties": {"norad_id": 40011, "name": "HODOYOSHI-4", "group": "resource", "lat": 74.24866881477234, "lon": 21.230369477372573, "alt_km": 603.0623487111134, "timestamp": "2025-12-10T04:57:29.262662+00:00", "meta": {"OBJECT_NAME": "HODOYOSHI-4", "OBJECT_ID": "2014-033B", "EPOCH": "2025-12-09T20:25:07.781664", "MEAN_MOTION": 14.8746304, "ECCENTRICITY": 0.0022987, "INCLINATION": 97.5416, "RA_OF_ASC_NODE": 172.8774, "ARG_OF_PERICENTER": 210.5854, "MEAN_ANOMALY": 149.4024, "EPHEMERIS_TYPE": 0, "CLASSIFICATION_TYPE": "U", "NORAD_CAT_ID": 40011, "ELEMENT_SET_NO": 999, "REV_AT_EPOCH": 62065, "BSTAR": 0.00018287, "MEAN_MOTION_DOT": 1.612e-05, "MEAN_MOTION_DDOT": 0}, "tle": {"line1": "1 40011U 14033B   25343.85078451  .00001612  00000+0  18287-3 0  9990", "line2": "2 40011  97.5416 172.8774 0022987 210.5854 149.4024 14.87463040620659"}}, "geometry": {"type": "Point", "coordinates": [21.230369477372573, 74.24866881477234]}}, {"type": "Feature", "properties": {"norad_id": 40013, "name": "DEIMOS-2", "group": "resource", "lat": -31.13761804476917, "lon": 35.46005504562866, "alt_km": 595.1626319447687, "timestamp": "2025-12-10T04:57:29.262672+00:00", "meta": {"OBJECT_NAME": "DEIMOS-2", "OBJECT_ID": "2014-033D", "EPOCH": "2025-12-09T21:34:49.070784", "MEAN_MOTION": 14.92955541, "ECCENTRICITY": 0.0001047, "INCLINATION": 97.6065, "RA_OF_ASC_NODE": 219.7936, "ARG_OF_PERICENTER": 91.8415, "MEAN_ANOMALY": 268.2924, "EPHEMERIS_TYPE": 0, "CLASSIFICATION_TYPE": "U", "NORAD_CAT_ID": 40013, "ELEMENT_SET_NO": 999, "REV_AT_EPOCH": 60947, "BSTAR": 0.00036902, "MEAN_MOTION_DOT": 3.777e-05, "MEAN_MOTION_DDOT": 0}, "tle": {"line1": "1 40013U 14033D   25343.89917906  .00003777  00000+0  36902-3 0  9991", "line2": "2 40013  97.6065 219.7936 0001047  91.8415 268.2924 14.92955541609474"}}, "geometry": {"type": "Point", "coordinates": [35.46005504562866, -31.13761804476917]}}, {"type": "Feature", "properties": {"norad_id": 40015, "name": "HODOYOSHI-3", "group": "resource", "lat": 53.20485816104768, "lon": 139.84117971340672, "alt_km": 629.7675495940894, "timestamp": "2025-12-10T04:57:29.262683+00:00", "meta": {"OBJECT_NAME": "HODOYOSHI-3", "OBJECT_ID": "2014-033F", "EPOCH": "2025-12-09T17:23:36.960576", "MEAN_MOTION": 14.84791818, "ECCENTRICITY": 0.0031812, "INCLINATION": 97.62, "RA_OF_ASC_NODE": 149.6911, "ARG_OF_PERICENTER": 258.2861, "MEAN_ANOMALY": 101.4784, "EPHEMERIS_TYPE": 0, "CLASSIFICATION_TYPE": "U", "NORAD_CAT_ID": 40015, "ELEMENT_SET_NO": 999, "REV_AT_EPOCH": 61950, "BSTAR": 0.00035855, "MEAN_MOTION_DOT": 3.017e-05, "MEAN_MOTION_DDOT": 0}, "tle": {"line1": "1 40015U 14033F   25343.72473334  .00003017  00000+0  35855-3 0  9990", "line2": "2 40015  97.6200 149.6911 0031812 258.2861 101.4784 14.84791818619501"}}, "geometry": {"type": "Point", "coordinates": [139.84117971340672, 53.20485816104768]}}, {"type": "Feature", "properties": {"norad_id": 40053, "name": "SPOT 7", "group": "resource", "lat": -4.463563878814297, "lon": 46.976361995253, "alt_km": 694.4205656402874, "timestamp": "2025-12-10T04:57:29.262694+00:00", "meta": {"OBJECT_NAME": "SPOT 7", "OBJECT_ID": "2014-034A", "EPOCH": "2025-12-09T20:45:31.449312", "MEAN_MOTION": 14.60727246, "ECCENTRICITY": 0.0001549, "INCLINATION": 98.0905, "RA_OF_ASC_NODE": 46.0064, "ARG_OF_PERICENTER": 88.9074, "MEAN_ANOMALY": 271.2304, "EPHEMERIS_TYPE": 0, "CLASSIFICATION_TYPE": "U", "NORAD_CAT_ID": 40053, "ELEMENT_SET_NO": 999, "REV_AT_EPOCH": 60949, "BSTAR": 0.00013626, "MEAN_MOTION_DOT": 6.19e-06, "MEAN_MOTION_DDOT": 0}, "tle": {"line1": "1 40053U 14034A   25343.86494733  .00000619  00000+0  13626-3 0  9991", "line2": "2 40053  98.0905  46.0064 0001549  88.9074 271.2304 14.60727246609496"}}, "geometry": {"type": "Point", "coordinates": [46.976361995253, -4.463563878814297]}}, {"type": "Feature", "properties": {"norad_id": 40072, "name": "SKYSAT-B", "group": "resource", "lat": 47.60469231484546, "lon": -81.49125388751868, "alt_km": 603.4766020031711, "timestamp": "2025-12-10T04:57:29.262704+00:00", "meta": {"OBJECT_NAME": "SKYSAT-B", "OBJECT_ID": "2014-037D", "EPOCH": "2025-12-09T19:03:13.836960", "MEAN_MOTION": 14.87310727, "ECCENTRICITY": 0.0005909, "INCLINATION": 98.3608, "RA_OF_ASC_NODE": 287.3443, "ARG_OF_PERICENTER": 159.0693, "MEAN_ANOMALY": 201.0764, "EPHEMERIS_TYPE": 0, "CLASSIFICATION_TYPE": "U", "NORAD_CAT_ID": 40072, "ELEMENT_SET_NO": 999, "REV_AT_EPOCH": 61780, "BSTAR": 0.00038192, "MEAN_MOTION_DOT": 3.387e-05, "MEAN_MOTION_DDOT": 0}, "tle": {"line1": "1 40072U 14037D   25343.79391015  .00003387  00000+0  38192-3 0  9996", "line2": "2 40072  98.3608 287.3443 0005909 159.0693 201.0764 14.87310727617808"}}, "geometry": {"type": "Point", "coordinates": [-81.49125388751868, 47.60469231484546]}}]}